[
  {
    "COMMENT": "GENERATED VIA SPACETRACK.ORG API",
    "ORIGINATOR": "JSPOC",
    "NORAD_CAT_ID": "40076",
    "OBJECT_NAME": "TDS 1",
    "OBJECT_TYPE": "PAYLOAD",
    "CLASSIFICATION_TYPE": "U",
    "INTLDES": "14037H",
    "EPOCH": "2017-08-14 20:58:32",
    "EPOCH_MICROSECONDS": "863008",
    "MEAN_MOTION": "14.81340489",
    "ECCENTRICITY": "0.0004796",
    "INCLINATION": "98.337",
    "RA_OF_ASC_NODE": "340.2594",
    "ARG_OF_PERICENTER": "239.5138",
    "MEAN_ANOMALY": "120.5597",
    "EPHEMERIS_TYPE": "0",
    "ELEMENT_SET_NO": "999",
    "REV_AT_EPOCH": "16771",
    "BSTAR": "9.0766e-06",
    "MEAN_MOTION_DOT": "1.3e-07",
    "MEAN_MOTION_DDOT": "0",
    "FILE": "2167623",
    "TLE_LINE0": "0 TDS 1",
    "TLE_LINE1": "1 40076U 14037H   17226.87399147 +.00000013 +00000-0 +90766-5 0  9995",
    "TLE_LINE2": "2 40076 098.3370 340.2594 0004796 239.5138 120.5597 14.81340489167716",
    "OBJECT_ID": "2014-037H",
    "OBJECT_NUMBER": "40076",
    "SEMIMAJOR_AXIS": "7003.233",
    "PERIOD": "97.209",
    "APOGEE": "628.456",
    "PERIGEE": "621.739"
  },
  {
    "COMMENT": "GENERATED VIA SPACETRACK.ORG API",
    "ORIGINATOR": "JSPOC",
    "NORAD_CAT_ID": "40076",
    "OBJECT_NAME": "TDS 1",
    "OBJECT_TYPE": "PAYLOAD",
    "CLASSIFICATION_TYPE": "U",
    "INTLDES": "14037H",
    "EPOCH": "2017-08-15 01:50:21",
    "EPOCH_MICROSECONDS": "86880",
    "MEAN_MOTION": "14.8134054",
    "ECCENTRICITY": "0.0004807",
    "INCLINATION": "98.337",
    "RA_OF_ASC_NODE": "340.4701",
    "ARG_OF_PERICENTER": "238.285",
    "MEAN_ANOMALY": "121.7896",
    "EPHEMERIS_TYPE": "0",
    "ELEMENT_SET_NO": "999",
    "REV_AT_EPOCH": "16774",
    "BSTAR": "9.6007e-06",
    "MEAN_MOTION_DOT": "1.8e-07",
    "MEAN_MOTION_DDOT": "0",
    "FILE": "2167694",
    "TLE_LINE0": "0 TDS 1",
    "TLE_LINE1": "1 40076U 14037H   17227.07663295  .00000018  00000-0  96007-5 0  9995",
    "TLE_LINE2": "2 40076  98.3370 340.4701 0004807 238.2850 121.7896 14.81340540167744",
    "OBJECT_ID": "2014-037H",
    "OBJECT_NUMBER": "40076",
    "SEMIMAJOR_AXIS": "7003.232",
    "PERIOD": "97.209",
    "APOGEE": "628.464",
    "PERIGEE": "621.731"
  },
  {
    "COMMENT": "GENERATED VIA SPACETRACK.ORG API",
    "ORIGINATOR": "JSPOC",
    "NORAD_CAT_ID": "40076",
    "OBJECT_NAME": "TDS 1",
    "OBJECT_TYPE": "PAYLOAD",
    "CLASSIFICATION_TYPE": "U",
    "INTLDES": "14037H",
    "EPOCH": "2017-08-15 09:56:41",
    "EPOCH_MICROSECONDS": "439264",
    "MEAN_MOTION": "14.81340632",
    "ECCENTRICITY": "0.0004814",
    "INCLINATION": "98.337",
    "RA_OF_ASC_NODE": "340.8214",
    "ARG_OF_PERICENTER": "237.2247",
    "MEAN_ANOMALY": "122.8503",
    "EPHEMERIS_TYPE": "0",
    "ELEMENT_SET_NO": "999",
    "REV_AT_EPOCH": "16779",
    "BSTAR": "9.7147e-06",
    "MEAN_MOTION_DOT": "1.8e-07",
    "MEAN_MOTION_DDOT": "0",
    "FILE": "2167859",
    "TLE_LINE0": "0 TDS 1",
    "TLE_LINE1": "1 40076U 14037H   17227.41436851  .00000018  00000-0  97147-5 0  9995",
    "TLE_LINE2": "2 40076  98.3370 340.8214 0004814 237.2247 122.8503 14.81340632167798",
    "OBJECT_ID": "2014-037H",
    "OBJECT_NUMBER": "40076",
    "SEMIMAJOR_AXIS": "7003.232",
    "PERIOD": "97.209",
    "APOGEE": "628.468",
    "PERIGEE": "621.726"
  },
  {
    "COMMENT": "GENERATED VIA SPACETRACK.ORG API",
    "ORIGINATOR": "JSPOC",
    "NORAD_CAT_ID": "40076",
    "OBJECT_NAME": "TDS 1",
    "OBJECT_TYPE": "PAYLOAD",
    "CLASSIFICATION_TYPE": "U",
    "INTLDES": "14037H",
    "EPOCH": "2017-08-15 13:11:13",
    "EPOCH_MICROSECONDS": "581600",
    "MEAN_MOTION": "14.81340684",
    "ECCENTRICITY": "0.0004813",
    "INCLINATION": "98.337",
    "RA_OF_ASC_NODE": "340.962",
    "ARG_OF_PERICENTER": "236.6821",
    "MEAN_ANOMALY": "123.3935",
    "EPHEMERIS_TYPE": "0",
    "ELEMENT_SET_NO": "999",
    "REV_AT_EPOCH": "16781",
    "BSTAR": "9.8691e-06",
    "MEAN_MOTION_DOT": "2e-07",
    "MEAN_MOTION_DDOT": "0",
    "FILE": "2168043",
    "TLE_LINE0": "0 TDS 1",
    "TLE_LINE1": "1 40076U 14037H   17227.54946275 +.00000020 +00000-0 +98691-5 0  9993",
    "TLE_LINE2": "2 40076 098.3370 340.9620 0004813 236.6821 123.3935 14.81340684167815",
    "OBJECT_ID": "2014-037H",
    "OBJECT_NUMBER": "40076",
    "SEMIMAJOR_AXIS": "7003.232",
    "PERIOD": "97.209",
    "APOGEE": "628.468",
    "PERIGEE": "621.726"
  },
  {
    "COMMENT": "GENERATED VIA SPACETRACK.ORG API",
    "ORIGINATOR": "JSPOC",
    "NORAD_CAT_ID": "40076",
    "OBJECT_NAME": "TDS 1",
    "OBJECT_TYPE": "PAYLOAD",
    "CLASSIFICATION_TYPE": "U",
    "INTLDES": "14037H",
    "EPOCH": "2017-08-15 18:03:01",
    "EPOCH_MICROSECONDS": "791648",
    "MEAN_MOTION": "14.813407",
    "ECCENTRICITY": "0.0004821",
    "INCLINATION": "98.3371",
    "RA_OF_ASC_NODE": "341.1729",
    "ARG_OF_PERICENTER": "235.5188",
    "MEAN_ANOMALY": "124.5574",
    "EPHEMERIS_TYPE": "0",
    "ELEMENT_SET_NO": "999",
    "REV_AT_EPOCH": "16784",
    "BSTAR": "9.3091e-06",
    "MEAN_MOTION_DOT": "1.5e-07",
    "MEAN_MOTION_DDOT": "0",
    "FILE": "2167994",
    "TLE_LINE0": "0 TDS 1",
    "TLE_LINE1": "1 40076U 14037H   17227.75210407  .00000015  00000-0  93091-5 0  9990",
    "TLE_LINE2": "2 40076  98.3371 341.1729 0004821 235.5188 124.5574 14.81340700167846",
    "OBJECT_ID": "2014-037H",
    "OBJECT_NUMBER": "40076",
    "SEMIMAJOR_AXIS": "7003.232",
    "PERIOD": "97.209",
    "APOGEE": "628.473",
    "PERIGEE": "621.721"
  },
  {
    "COMMENT": "GENERATED VIA SPACETRACK.ORG API",
    "ORIGINATOR": "JSPOC",
    "NORAD_CAT_ID": "40076",
    "OBJECT_NAME": "TDS 1",
    "OBJECT_TYPE": "PAYLOAD",
    "CLASSIFICATION_TYPE": "U",
    "INTLDES": "14037H",
    "EPOCH": "2017-08-15 21:17:33",
    "EPOCH_MICROSECONDS": "928800",
    "MEAN_MOTION": "14.81340782",
    "ECCENTRICITY": "0.0004812",
    "INCLINATION": "98.337",
    "RA_OF_ASC_NODE": "341.3133",
    "ARG_OF_PERICENTER": "235.2706",
    "MEAN_ANOMALY": "124.8055",
    "EPHEMERIS_TYPE": "0",
    "ELEMENT_SET_NO": "999",
    "REV_AT_EPOCH": "16786",
    "BSTAR": "1.0199e-05",
    "MEAN_MOTION_DOT": "2.2e-07",
    "MEAN_MOTION_DDOT": "0",
    "FILE": "2168051",
    "TLE_LINE0": "0 TDS 1",
    "TLE_LINE1": "1 40076U 14037H   17227.88719825 +.00000022 +00000-0 +10199-4 0  9997",
    "TLE_LINE2": "2 40076 098.3370 341.3133 0004812 235.2706 124.8055 14.81340782167868",
    "OBJECT_ID": "2014-037H",
    "OBJECT_NUMBER": "40076",
    "SEMIMAJOR_AXIS": "7003.232",
    "PERIOD": "97.209",
    "APOGEE": "628.467",
    "PERIGEE": "621.727"
  },
  {
    "COMMENT": "GENERATED VIA SPACETRACK.ORG API",
    "ORIGINATOR": "JSPOC",
    "NORAD_CAT_ID": "40076",
    "OBJECT_NAME": "TDS 1",
    "OBJECT_TYPE": "PAYLOAD",
    "CLASSIFICATION_TYPE": "U",
    "INTLDES": "14037H",
    "EPOCH": "2017-08-16 02:09:22",
    "EPOCH_MICROSECONDS": "143168",
    "MEAN_MOTION": "14.81340839",
    "ECCENTRICITY": "0.0004805",
    "INCLINATION": "98.337",
    "RA_OF_ASC_NODE": "341.524",
    "ARG_OF_PERICENTER": "234.5141",
    "MEAN_ANOMALY": "125.5624",
    "EPHEMERIS_TYPE": "0",
    "ELEMENT_SET_NO": "999",
    "REV_AT_EPOCH": "16789",
    "BSTAR": "1.0352e-05",
    "MEAN_MOTION_DOT": "2.3e-07",
    "MEAN_MOTION_DDOT": "0",
    "FILE": "2168128",
    "TLE_LINE0": "0 TDS 1",
    "TLE_LINE1": "1 40076U 14037H   17228.08983962  .00000023  00000-0  10352-4 0  9997",
    "TLE_LINE2": "2 40076  98.3370 341.5240 0004805 234.5141 125.5624 14.81340839167892",
    "OBJECT_ID": "2014-037H",
    "OBJECT_NUMBER": "40076",
    "SEMIMAJOR_AXIS": "7003.231",
    "PERIOD": "97.209",
    "APOGEE": "628.462",
    "PERIGEE": "621.731"
  },
  {
    "COMMENT": "GENERATED VIA SPACETRACK.ORG API",
    "ORIGINATOR": "JSPOC",
    "NORAD_CAT_ID": "40076",
    "OBJECT_NAME": "TDS 1",
    "OBJECT_TYPE": "PAYLOAD",
    "CLASSIFICATION_TYPE": "U",
    "INTLDES": "14037H",
    "EPOCH": "2017-08-16 10:15:42",
    "EPOCH_MICROSECONDS": "493824",
    "MEAN_MOTION": "14.81341093",
    "ECCENTRICITY": "0.0004835",
    "INCLINATION": "98.3369",
    "RA_OF_ASC_NODE": "341.8753",
    "ARG_OF_PERICENTER": "233.522",
    "MEAN_ANOMALY": "126.5565",
    "EPHEMERIS_TYPE": "0",
    "ELEMENT_SET_NO": "999",
    "REV_AT_EPOCH": "16794",
    "BSTAR": "1.2436e-05",
    "MEAN_MOTION_DOT": "4e-07",
    "MEAN_MOTION_DDOT": "0",
    "FILE": "2168276",
    "TLE_LINE0": "0 TDS 1",
    "TLE_LINE1": "1 40076U 14037H   17228.42757516  .00000040  00000-0  12436-4 0  9993",
    "TLE_LINE2": "2 40076  98.3369 341.8753 0004835 233.5220 126.5565 14.81341093167946",
    "OBJECT_ID": "2014-037H",
    "OBJECT_NUMBER": "40076",
    "SEMIMAJOR_AXIS": "7003.231",
    "PERIOD": "97.209",
    "APOGEE": "628.482",
    "PERIGEE": "621.710"
  },
  {
    "COMMENT": "GENERATED VIA SPACETRACK.ORG API",
    "ORIGINATOR": "JSPOC",
    "NORAD_CAT_ID": "40076",
    "OBJECT_NAME": "TDS 1",
    "OBJECT_TYPE": "PAYLOAD",
    "CLASSIFICATION_TYPE": "U",
    "INTLDES": "14037H",
    "EPOCH": "2017-08-16 18:22:02",
    "EPOCH_MICROSECONDS": "811648",
    "MEAN_MOTION": "14.81341175",
    "ECCENTRICITY": "0.0004846",
    "INCLINATION": "98.337",
    "RA_OF_ASC_NODE": "342.2267",
    "ARG_OF_PERICENTER": "231.8741",
    "MEAN_ANOMALY": "128.2039",
    "EPHEMERIS_TYPE": "0",
    "ELEMENT_SET_NO": "999",
    "REV_AT_EPOCH": "16799",
    "BSTAR": "1.1935e-05",
    "MEAN_MOTION_DOT": "3.6e-07",
    "MEAN_MOTION_DDOT": "0",
    "FILE": "2168416",
    "TLE_LINE0": "0 TDS 1",
    "TLE_LINE1": "1 40076U 14037H   17228.76531032  .00000036  00000-0  11935-4 0  9991",
    "TLE_LINE2": "2 40076  98.3370 342.2267 0004846 231.8741 128.2039 14.81341175167995",
    "OBJECT_ID": "2014-037H",
    "OBJECT_NUMBER": "40076",
    "SEMIMAJOR_AXIS": "7003.230",
    "PERIOD": "97.209",
    "APOGEE": "628.489",
    "PERIGEE": "621.702"
  }
]
